SCD 1                   
1 22490U 93009B   21171.37031428  .00000228  00000-0  12651-4 0  9999
2 22490  24.9703 286.2078 0042847 313.0207  84.4147 14.44611753497541
TECHSAT 1B (GO-32)      
1 25397U 98043D   21171.42787780 -.00000018  00000-0  11770-4 0  9995
2 25397  98.7713 116.9716 0002410  80.6810 279.4640 14.23710131192135
SCD 2                   
1 25504U 98060A   21171.25949353  .00000215  00000-0  96862-5 0  9995
2 25504  24.9947 139.2671 0017036 325.3788  56.7127 14.44127691196794
LANDSAT 7               
1 25682U 99020A   21169.47216761  .00000043  00000-0  19246-4 0  9999
2 25682  98.0304 226.3014 0001608 100.0882 260.0501 14.57199275179541
DLR-TUBSAT              
1 25757U 99029B   21171.42448252 -.00000013  00000-0  81482-5 0  9991
2 25757  98.4523 106.3164 0015048 140.2433 219.9867 14.51444278168866
TERRA                   
1 25994U 99068A   21170.84721894  .00000043  00000-0  19540-4 0  9995
2 25994  98.1757 245.2271 0001373  90.1898  24.7161 14.57127916143697
MAROC-TUBSAT            
1 27004U 01056D   21171.34332781 -.00000030  00000-0  16645-4 0  9998
2 27004  99.5713 307.7673 0020370 144.0965 270.2954 13.70147167976540
AQUA                    
1 27424U 02022A   21170.78366677  .00000085  00000-0  28845-4 0  9990
2 27424  98.2098 112.0740 0000609  43.9300 347.1259 14.57114662 17372
IRS-P6 (RESOURCESAT-1)  
1 28051U 03046A   21169.48907229  .00000002  00000-0  15617-4 0  9995
2 28051  98.4459 244.5646 0058777  21.2500 339.1109 14.34188109918858
SHIYAN 1 (SY-1)         
1 28220U 04012A   21171.53636600  .00000358  00000-0  33412-4 0  9995
2 28220  97.8842 150.9070 0018703 100.4150 259.9182 15.00350966935914
FORMOSAT-2 (ROCSAT 2)   
1 28254U 04018A   21171.32083562 -.00000216  00000-0 -11737-3 0  9998
2 28254  98.6711 193.2919 0002870  40.3429 329.3097 14.00662830873560
AURA                    
1 28376U 04026A   21170.85199401  .00000091  00000-0  30188-4 0  9990
2 28376  98.2101 114.2975 0001284  89.9719 270.1626 14.57110802900424
IRS-P5 (CARTOSAT-1)     
1 28649U 05017A   21171.45060139  .00000055  00000-0  12824-4 0  9993
2 28649  97.7673 237.5259 0001169  32.5445 327.5841 14.83795045873074
SINAH 1                 
1 28893U 05043D   21171.31706991  .00000005  00000-0  10329-4 0  9994
2 28893  98.0696 297.7466 0014274 224.5974 135.4080 14.61574430834317
EROS B                  
1 29079U 06014A   21170.95389041  .00001652  00000-0  72438-4 0  9990
2 29079  97.4056 291.2692 0009334 109.5807 317.8191 15.23353666841171
RESURS-DK 1             
1 29228U 06021A   21171.14464603  .00000109  00000-0  15482-4 0  9996
2 29228  69.9358 331.8496 0007621 262.5715  97.4580 15.02705106827976
ARIRANG-2 (KOMPSAT-2)   
1 29268U 06031A   21169.53464157  .00000093  00000-0  27238-4 0  9999
2 29268  97.9398  48.7405 0018545  80.0785 280.2515 14.62369793794714
LAPAN-TUBSAT            
1 29709U 07001A   21169.52131068  .00000040  00000-0  11693-4 0  9998
2 29709  97.9134 129.9374 0013194   6.4803 353.6574 14.82287691780596
CARTOSAT-2 (IRS-P7)     
1 29710U 07001B   21171.25203791  .00002166  00000-0  68871-4 0  9997
2 29710  97.8745 253.7617 0169487 237.2102 121.2710 15.21137323781079
HAIYANG-1B              
1 31113U 07010A   21171.38818951  .00000003  00000-0  17403-4 0  9994
2 31113  98.3562 206.4505 0013395 199.6424 160.4244 14.30270677740753
COSMO-SKYMED 1          
1 31598U 07023A   21169.51993411 -.00000250  00000-0 -24880-4 0  9995
2 31598  97.8907 353.3950 0001426  97.0567 263.0830 14.82153629759052
TERRASAR-X              
1 31698U 07026A   21170.96787332  .00000342  00000-0  19494-4 0  9998
2 31698  97.4453 178.7405 0002171  88.8664 325.6922 15.19151836777093
WORLDVIEW-1 (WV-1)      
1 32060U 07041A   21171.28803782  .00000852  00000-0  37645-4 0  9997
2 32060  97.3731 290.9029 0000615 167.1888 192.9365 15.24401479765296
YAOGAN 3                
1 32289U 07055A   21169.48065834  .00000005  00000-0  74900-5 0  9998
2 32289  97.9720 188.7924 0001191  96.7642 263.3707 14.81094732735164
COSMO-SKYMED 2          
1 32376U 07059A   21169.48620493  .00000370  00000-0  53083-4 0  9990
2 32376  97.8909 353.3663 0001662  92.7089 267.4327 14.82153728731793
RADARSAT-2              
1 32382U 07061A   21169.56925409 -.00000024  00000-0  76310-5 0  9990
2 32382  98.5744 176.8030 0001351  93.4572  14.3038 14.29983615705292
CARTOSAT-2A             
1 32783U 08021A   21169.49086694  .00000219  00000-0  36831-4 0  9996
2 32783  97.8711 228.6980 0011270 263.2198  96.7737 14.78720142709231
HUANJING 1A (HJ-1A)     
1 33320U 08041A   21169.46220648  .00000126  00000-0  24500-4 0  9999
2 33320  97.7220 213.6299 0020634 339.0474  20.9890 14.77644449688636
HUANJING 1B (HJ-1B)     
1 33321U 08041B   21169.42387427  .00000146  00000-0  27377-4 0  9992
2 33321  97.7429 216.4036 0034760 355.1745   4.9130 14.77381030688636
GEOEYE 1                
1 33331U 08042A   21169.51722074  .00000071  00000-0  22422-4 0  9998
2 33331  98.0972 244.3124 0008520 351.0235   9.0823 14.64391384683107
THEOS                   
1 33396U 08049A   21169.51303557 -.00000012  00000-0  14825-4 0  9991
2 33396  98.6889 237.0497 0001128  96.0340  18.2028 14.20039594659019
COSMO-SKYMED 3          
1 33412U 08054A   21169.46928062 -.00001513  00000-0 -18361-3 0  9990
2 33412  97.8906 353.3448 0001573  87.5860 272.5563 14.82147546684251
YAOGAN 4                
1 33446U 08061A   21171.32535834  .00000040  00000-0  12732-4 0  9993
2 33446  97.7756 118.5158 0015165 224.0314 135.9690 14.77100404676130
GOSAT (IBUKI)           
1 33492U 09002A   21171.29877089  .00000169  00000-0  38361-4 0  9995
2 33492  98.0884 283.0191 0001367  81.9379 278.1981 14.67538136664565
YAOGAN 6                
1 34839U 09021A   21171.23796237  .00000637  00000-0  25941-4 0  9991
2 34839  97.0483 165.0501 0028402 146.7730 213.5301 15.27523606675934
DEIMOS-1                
1 35681U 09041A   21169.50909060  .00000022  00000-0  10936-4 0  9992
2 35681  97.7593  33.3364 0001164  23.9369 336.1903 14.71897028638235
DUBAISAT-1              
1 35682U 09041B   21169.50047685  .00000129  00000-0  29808-4 0  9995
2 35682  97.7599 335.0777 0011959 148.0851 212.1115 14.68892236636856
OCEANSAT-2              
1 35931U 09051A   21170.82597222  .00003682  00000-0  94475-3 0  9995
2 35931  98.2940 266.8290 0002150  51.6412 308.5128 14.50848002621687
WORLDVIEW-2 (WV-2)      
1 35946U 09055A   21169.48817511  .00000020  00000-0  21158-4 0  9993
2 35946  98.4839 244.0419 0001666  50.7061 309.4275 14.37668709613610
SMOS                    
1 36036U 09059A   21171.23344329  .00000062  00000-0  33590-4 0  9995
2 36036  98.4439 358.9742 0001402  79.4319 280.7027 14.39774708611289
YAOGAN 7                
1 36110U 09069A   21169.45254493  .00000085  00000-0  20338-4 0  9993
2 36110  98.2361  18.4859 0025462 123.7866 236.5771 14.75491602620478
TANDEM-X                
1 36605U 10030A   21168.25901225 -.00000743  00000-0 -32204-4 0  9999
2 36605  97.4443 176.0707 0001884  77.0938 292.2806 15.19143973609429
CARTOSAT-2B             
1 36795U 10035A   21170.81262937 -.00000410  00000-0 -48885-4 0  9992
2 36795  97.8819 229.3908 0012851 340.9696  18.6970 14.78681104590477
YAOGAN 10               
1 36834U 10038A   21169.47321061  .00000062  00000-0  14810-4 0  9995
2 36834  97.9783 176.9624 0001240  82.2162 277.9191 14.81051810586905
COSMO-SKYMED 4          
1 37216U 10060A   21169.49882891  .00000023  00000-0  94170-5 0  9995
2 37216  97.8898 353.3722 0001322  86.2546 273.8821 14.82156206574343
RESOURCESAT-2           
1 37387U 11015A   21169.47355347  .00000010  00000-0  24183-4 0  9996
2 37387  98.6406 243.5283 0005047  54.8467 305.3183 14.21661584527443
HAIYANG-2A              
1 37781U 11043A   21171.24510890 -.00000009  00000-0  34021-4 0  9990
2 37781  99.3146 178.4336 0001743  91.6247 268.5104 13.78732214495727
RASAT                   
1 37791U 11044D   21169.44302756  .00000065  00000-0  21223-4 0  9992
2 37791  98.1038 262.9900 0021487 193.8481 166.2135 14.64836347525824
MEGHA-TROPIQUES         
1 37838U 11058A   21171.36923959  .00000291  00000-0  15229-4 0  9997
2 37838  19.9790 311.9819 0009758 275.8680  84.0612 14.09594339499957
SRMSAT                  
1 37841U 11058D   21170.98786604  .00000289  00000-0  13414-4 0  9993
2 37841  19.9727 285.7637 0011888 322.4391 193.7101 14.10697433500227
YAOGAN 13               
1 37941U 11072A   21170.99254696  .00000743  00000-0  38898-4 0  9990
2 37941  97.5900 113.1415 0001422 154.5887 275.3069 15.18953718529757
PLEIADES 1A             
1 38012U 11076F   21169.51760441  .00000021  00000-0  14397-4 0  9997
2 38012  98.2003 244.7635 0001724  86.3408 273.7990 14.58541820506020
ZIYUAN 1-02C (ZY 1-02C) 
1 38038U 11079A   21171.14207408  .00000118  00000-0  56811-4 0  9993
2 38038  98.6361 231.3986 0005956 253.9790 106.1673 14.35297080497518
ZIYUAN 3-1 (ZY 3-1)     
1 38046U 12001A   21170.97114238  .00000885  00000-0  42570-4 0  9994
2 38046  97.3800 244.9062 0001956  26.2700 146.4622 15.21345592524491
ARIRANG-3 (KOMPSAT-3)   
1 38338U 12025B   21169.42021240  .00000063  00000-0  22008-4 0  9994
2 38338  98.1442 109.1700 0012319  75.0866 285.1692 14.61715592484797
KANOPUS-V 1             
1 38707U 12039A   21170.97669325  .00000708  00000-0  36286-4 0  9992
2 38707  97.4644  91.5278 0001717  80.8346  49.8224 15.19760547494313
EXACTVIEW-1 (ADS-1B)    
1 38709U 12039C   21171.43399269 -.00000010  00000-0  16338-4 0  9996
2 38709  99.0593 222.9217 0011335  23.7119 336.4579 14.24050942463219
SPOT 6                  
1 38755U 12047A   21171.38566611  .00000021  00000-0  14417-4 0  9994
2 38755  98.2005 239.0537 0001327  94.8201 265.3156 14.58550166467376
PLEIADES 1B             
1 39019U 12068A   21171.40424182  .00000020  00000-0  14176-4 0  9991
2 39019  98.1947 246.6997 0001555  79.0773 281.0606 14.58558353455154
GOKTURK 2               
1 39030U 12073A   21171.40740846  .00000040  00000-0  13776-4 0  9995
2 39030  97.9043  56.2216 0002791  66.4124 293.7359 14.72818766456062
